ONEWEB-0551             
1 56053U 23043H   24103.36739504 -.00000307  00000+0 -84864-3 0  9992
2 56053  87.9020  57.5979 0001755  85.4585 274.6745 13.15547886 51764
ONEWEB-0552             
1 56054U 23043J   24103.34980077  .00000015  00000+0  56902-5 0  9992
2 56054  87.9299  42.3974 0001638  72.8308 287.3005 13.21824869 53097
ONEWEB-0553             
1 56055U 23043K   24103.34176126  .00000005  00000+0 -21150-4 0  9991
2 56055  87.9148  27.1794 0002303  82.9969 277.1424 13.16592893 54251
ONEWEB-0554             
1 56056U 23043L   24103.32909518  .00000111  00000+0  25804-3 0  9995
2 56056  87.9151  27.2017 0001797  56.0033 304.1269 13.16592656 54238
ONEWEB-0555             
1 56057U 23043M   24103.29110392  .00000077  00000+0  16890-3 0  9992
2 56057  87.9145  27.1827 0002595  74.3361 285.8056 13.16592707 54230
ONEWEB-0557             
1 56058U 23043N   24103.22934512 -.00000397  00000+0 -10725-2 0  9991
2 56058  87.9145  27.2209 0002857  65.6036 294.5392 13.16593545 54229
ONEWEB-0558             
1 56059U 23043P   24103.34349285  .00000077  00000+0  15384-3 0  9992
2 56059  87.9302  42.3798 0001563  92.4857 267.6456 13.21824851 53109
ONEWEB-0559             
1 56060U 23043Q   24103.33245363  .00000071  00000+0  14131-3 0  9998
2 56060  87.9301  42.3809 0001354  69.4250 290.7030 13.21825908 53112
ONEWEB-0566             
1 56061U 23043R   24103.32614376  .00000137  00000+0  30143-3 0  9996
2 56061  87.9301  42.3830 0001322  96.6590 263.4694 13.21827502 53093
ONEWEB-0568             
1 56062U 23043S   24103.32276180 -.00000019  00000+0 -84585-4 0  9995
2 56062  87.9148  27.1664 0002231  78.7617 281.3765 13.16592824 54257
ONEWEB-0574             
1 56063U 23043T   24103.31984013  .00000168  00000+0  37622-3 0  9998
2 56063  87.9297  42.3800 0001980  84.0218 276.1142 13.21825383 53133
ONEWEB-0575             
1 56064U 23043U   24103.31642927  .00000130  00000+0  30750-3 0  9998
2 56064  87.9149  27.1758 0002191  64.0787 296.0569 13.16596891 54247
ONEWEB-0576             
1 56065U 23043V   24103.29742393 -.00000318  00000+0 -86584-3 0  9990
2 56065  87.9144  27.1786 0002304  75.6300 284.5087 13.16593889 54239
ONEWEB-0577             
1 56066U 23043W   24103.30376937  .00000130  00000+0  30584-3 0  9999
2 56066  87.9145  27.1763 0002337  58.4279 301.7080 13.16592701 54266
ONEWEB-0578             
1 56067U 23043X   24103.91279475 -.00000015  00000+0 -68054-4 0  9994
2 56067  87.9303  42.2580 0002088  80.8501 279.2869 13.21825210 53171
ONEWEB-0579             
1 56068U 23043Y   24103.90333359 -.00000036  00000+0 -11890-3 0  9994
2 56068  87.9300  42.2597 0001474  75.3980 284.7317 13.21827037 53184
ONEWEB-0581             
1 56069U 23043Z   24103.31008688 -.00000105  00000+0 -30918-3 0  9993
2 56069  87.9145  27.2048 0001849  58.8820 301.2492 13.16596270 54233
ONEWEB-0609             
1 56070U 23043AA  24103.92834009  .00000169  00000+0  41582-3 0  9993
2 56070  87.9020  57.4707 0001902  83.6381 276.4966 13.15548113 51870
ONEWEB-0613             
1 56071U 23043AB  24103.92358023  .00000092  00000+0  20940-3 0  9991
2 56071  87.9023  57.4650 0001574  83.5510 276.5800 13.15546111 51873
ONEWEB-0630             
1 56072U 23043AC  24103.91881541 -.00000035  00000+0 -12733-3 0  9997
2 56072  87.9019  57.4593 0001604  90.2870 269.8444 13.15549783 51869
ONEWEB-0632             
1 56073U 23043AD  24103.91405928 -.00000002  00000+0 -38797-4 0  9992
2 56073  87.9019  57.4788 0001774  69.6010 290.5310 13.15550802 51867
ONEWEB-0633             
1 56074U 23043AE  24103.90773928 -.00000040  00000+0 -13915-3 0  9996
2 56074  87.9017  57.4642 0001581  98.3183 261.8126 13.15549811 51843
ONEWEB-0634             
1 56075U 23043AF  24103.36106659 -.00000064  00000+0 -20384-3 0  9992
2 56075  87.9023  57.5795 0002167  91.3754 268.7624 13.15550548 51768
ONEWEB-0635             
1 56076U 23043AG  24103.43236475 -.00000087  00000+0 -26637-3 0  9993
2 56076  87.9021  57.6220 0001892  67.7068 292.4262 13.15546226 51805
ONEWEB-0636             
1 56077U 23043AH  24103.42444469 -.00000037  00000+0 -13207-3 0  9991
2 56077  87.9023  57.5926 0001906  69.9602 290.1733 13.15546564 51784
ONEWEB-0637             
1 56078U 23043AJ  24103.95052424  .00000062  00000+0  13175-3 0  9996
2 56078  87.9024  57.4636 0001946  67.5247 292.6089 13.15547551 51874
ONEWEB-0647             
1 56079U 23043AK  24103.94575939  .00000129  00000+0  30834-3 0  9992
2 56079  87.9023  57.4847 0001746  72.0148 288.1172 13.15550323 51860
ONEWEB-0651             
1 56080U 23043AL  24103.94101413  .00000149  00000+0  36123-3 0  9995
2 56080  87.9024  57.4604 0002083  69.6029 290.5325 13.15549468 53068
ONEWEB-0718             
1 56081U 23043AM  24103.93626713  .00000171  00000+0  41965-3 0  9995
2 56081  87.9024  57.4483 0002358  94.6538 265.4861 13.15547267 51870
GSLV R/B                
1 56082U 23043AN  24103.19763889  .00114063  00000+0  81689-3 0  9993
2 56082  87.4068   4.7883 0008132 343.2351  16.8652 15.73326485 59322
ONEWEB-0561             
1 56710U 23068A   24103.82833347 -.00038521  00000+0 -95651-1 0  9993
2 56710  88.1392  72.6526 0003539 327.9510  32.1408 13.20432846 44512
ONEWEB-0668             
1 56711U 23068B   24103.31244983  .00000295  00000+0  73844-3 0  9997
2 56711  87.9137  27.1910 0002460  88.2923 271.8490 13.16598485 47058
ONEWEB-0676             
1 56712U 23068C   24103.28714644  .00000042  00000+0  75891-4 0  9995
2 56712  87.9144  27.1945 0001778  63.8203 296.3110 13.16592675 46972
ONEWEB-0677             
1 56713U 23068D   24103.93080073  .00000011  00000+0 -30228-5 0  9993
2 56713  88.3234  71.0986 0002157  67.4569 292.6801 13.34781831 44741
ONEWEB-0678             
1 56714U 23068E   24103.90456839 -.00000056  00000+0 -18359-3 0  9997
2 56714  87.9024  57.4181 0001596  83.3030 276.8282 13.15548941 44722
ONEWEB-0679             
1 56715U 23068F   24103.33780107  .00000022  00000+0  25262-4 0  9996
2 56715  87.9146  27.1920 0002612  72.7458 287.3959 13.16591772 47002
ONEWEB-0680             
1 56716U 23068G   24103.36162916  .00000036  00000+0  56493-4 0  9997
2 56716  87.9302  42.4054 0002701  88.4364 271.7079 13.21824236 45967
ONEWEB-0681             
1 56717U 23068H   24103.38685015  .00000106  00000+0  22614-3 0  9995
2 56717  87.9302  42.3880 0002210  46.1562 313.9754 13.21823490 45959
ONEWEB-0682             
1 56718U 23068J   24103.93069464  .00000185  00000+0  45629-3 0  9999
2 56718  87.9021  57.4567 0002552  83.1928 276.9492 13.15545821 44894
ONEWEB-0683             
1 56719U 23068K   24103.95211026  .00000056  00000+0  11436-3 0  9991
2 56719  87.9024  57.4251 0002281  82.6446 277.4944 13.15549656 44861
ONEWEB-0684             
1 56720U 23068L   24103.42762759  .00000046  00000+0  89210-4 0  9994
2 56720  87.9022  57.6053 0001172 137.0787 223.0435 13.15549377 44620
ONEWEB-0686             
1 56721U 23068M   24103.32752060  .00000135  00000+0  31895-3 0  9992
2 56721  87.9143  27.2306 0001830  83.7549 276.3790 13.16593642 46995
ONEWEB-0694             
1 56722U 23068N   24103.35362827  .00000036  00000+0  61361-4 0  9996
2 56722  87.9141  27.1413 0002404  82.9545 277.1859 13.16597456 47057
ONEWEB-0696             
1 56723U 23068P   24103.91724190  .00000065  00000+0  13895-3 0  9994
2 56723  87.9019  57.4825 0001660  76.6987 283.4328 13.15550224 44800
ONEWEB-0703             
1 56724U 23068Q   24103.92675167  .00000132  00000+0  31551-3 0  9999
2 56724  87.9022  57.5018 0000941  43.9067 316.2138 13.15549109 44698
ONEWEB-0721             
1 56725U 23068R   24103.21142901  .00000122  00000+0  11146-4 0  9995
2 56725  86.6826   3.6619 0012188 135.6552 224.5650 14.84637372 48725
